<?xml version="1.0" encoding="UTF-8"?>
<kml xmlns="http://www.opengis.net/kml/2.2" xmlns:gx="http://www.google.com/kml/ext/2.2" xmlns:kml="http://www.opengis.net/kml/2.2" xmlns:atom="http://www.w3.org/2005/Atom">
<Document id="1xxtVmgPYIKuxXfIRUjIaPAl32CcdbNKu">
	<name>Patricia Medina</name>
	<gx:CascadingStyle kml:id="__managed_style_2AB90BCC543E5FD4D86F">
		<Style>
			<IconStyle>
				<scale>1.2</scale>
				<Icon>
					<href>https://earth.google.com/earth/document/icon?color=1976d2&amp;id=2000&amp;scale=4</href>
				</Icon>
				<hotSpot x="64" y="128" xunits="pixels" yunits="insetPixels"/>
			</IconStyle>
			<LabelStyle>
			</LabelStyle>
			<LineStyle>
				<color>ff2dc0fb</color>
				<width>3</width>
			</LineStyle>
			<PolyStyle>
				<color>40ffffff</color>
			</PolyStyle>
			<BalloonStyle>
			</BalloonStyle>
		</Style>
	</gx:CascadingStyle>
	<gx:CascadingStyle kml:id="__managed_style_14F8CCFB793E5FD4D86F">
		<Style>
			<IconStyle>
				<Icon>
					<href>https://earth.google.com/earth/document/icon?color=1976d2&amp;id=2000&amp;scale=4</href>
				</Icon>
				<hotSpot x="64" y="128" xunits="pixels" yunits="insetPixels"/>
			</IconStyle>
			<LabelStyle>
			</LabelStyle>
			<LineStyle>
				<color>ff2dc0fb</color>
				<width>2</width>
			</LineStyle>
			<PolyStyle>
				<color>40ffffff</color>
			</PolyStyle>
			<BalloonStyle>
			</BalloonStyle>
		</Style>
	</gx:CascadingStyle>
	<StyleMap id="__managed_style_0B48AAE5BD3E5FD4D86F">
		<Pair>
			<key>normal</key>
			<styleUrl>#__managed_style_14F8CCFB793E5FD4D86F</styleUrl>
		</Pair>
		<Pair>
			<key>highlight</key>
			<styleUrl>#__managed_style_2AB90BCC543E5FD4D86F</styleUrl>
		</Pair>
	</StyleMap>
	<Placemark id="04CED78A182DB7CE9E47">
		<name>Sector 1</name>
		<LookAt>
			<longitude>-73.28771753121147</longitude>
			<latitude>-38.33646705423391</latitude>
			<altitude>98.24261178700843</altitude>
			<heading>0</heading>
			<tilt>0</tilt>
			<gx:fovy>35</gx:fovy>
			<range>171.2752626240945</range>
			<altitudeMode>absolute</altitudeMode>
		</LookAt>
		<styleUrl>#__managed_style_0B48AAE5BD3E5FD4D86F</styleUrl>
		<Polygon>
			<outerBoundaryIs>
				<LinearRing>
					<coordinates>
						-73.28788306173378,-38.33650475384268,0 -73.2877713416447,-38.33672734457447,0 -73.28750286032235,-38.33664648926839,0 -73.28766619525658,-38.33635364405337,0 -73.28788306173378,-38.33650475384268,0 
					</coordinates>
				</LinearRing>
			</outerBoundaryIs>
		</Polygon>
	</Placemark>
	<Placemark id="0585BC78EC2DB7CF03F9">
		<name>Sector 2</name>
		<LookAt>
			<longitude>-73.28735419825045</longitude>
			<latitude>-38.3364007714324</latitude>
			<altitude>96.01236497313425</altitude>
			<heading>0</heading>
			<tilt>0</tilt>
			<gx:fovy>35</gx:fovy>
			<range>173.5055039448889</range>
			<altitudeMode>absolute</altitudeMode>
		</LookAt>
		<styleUrl>#__managed_style_0B48AAE5BD3E5FD4D86F</styleUrl>
		<Polygon>
			<outerBoundaryIs>
				<LinearRing>
					<coordinates>
						-73.28766013371319,-38.33635048363139,0 -73.28749534398828,-38.33665118075415,0 -73.28722597590767,-38.33655696196791,0 -73.28747451923095,-38.33620961076559,0 -73.28766013371319,-38.33635048363139,0 
					</coordinates>
				</LinearRing>
			</outerBoundaryIs>
		</Polygon>
	</Placemark>
</Document>
</kml>
