<?xml version="1.0" encoding="UTF-8"?>
<kml xmlns="http://www.opengis.net/kml/2.2" xmlns:gx="http://www.google.com/kml/ext/2.2" xmlns:kml="http://www.opengis.net/kml/2.2" xmlns:atom="http://www.w3.org/2005/Atom">
<Document id="document">
	<name>poligono</name>
	<gx:CascadingStyle kml:id="__managed_style_50BC6C25B83E658747D8">
		<Style>
			<IconStyle>
				<scale>1.2</scale>
				<Icon>
					<href>https://earth.google.com/earth/document/icon?color=1976d2&amp;id=2000&amp;scale=4</href>
				</Icon>
				<hotSpot x="64" y="128" xunits="pixels" yunits="insetPixels"/>
			</IconStyle>
			<LabelStyle>
			</LabelStyle>
			<LineStyle>
				<color>ff2dc0fb</color>
				<width>3</width>
			</LineStyle>
			<PolyStyle>
				<color>40ffffff</color>
			</PolyStyle>
			<BalloonStyle>
				<displayMode>hide</displayMode>
			</BalloonStyle>
		</Style>
	</gx:CascadingStyle>
	<gx:CascadingStyle kml:id="__managed_style_4350C96F7E3E658747D8">
		<Style>
			<IconStyle>
				<Icon>
					<href>https://earth.google.com/earth/document/icon?color=1976d2&amp;id=2000&amp;scale=4</href>
				</Icon>
				<hotSpot x="64" y="128" xunits="pixels" yunits="insetPixels"/>
			</IconStyle>
			<LabelStyle>
			</LabelStyle>
			<LineStyle>
				<color>ff2dc0fb</color>
				<width>2</width>
			</LineStyle>
			<PolyStyle>
				<color>40ffffff</color>
			</PolyStyle>
			<BalloonStyle>
				<displayMode>hide</displayMode>
			</BalloonStyle>
		</Style>
	</gx:CascadingStyle>
	<StyleMap id="__managed_style_3260387E113E658747D8">
		<Pair>
			<key>normal</key>
			<styleUrl>#__managed_style_4350C96F7E3E658747D8</styleUrl>
		</Pair>
		<Pair>
			<key>highlight</key>
			<styleUrl>#__managed_style_50BC6C25B83E658747D8</styleUrl>
		</Pair>
	</StyleMap>
	<Placemark id="0647376AA73E658747D4">
		<name>Polígono sin título</name>
		<LookAt>
			<longitude>-72.00913853016623</longitude>
			<latitude>-36.37950297631951</latitude>
			<altitude>165.2645981145816</altitude>
			<heading>0</heading>
			<tilt>0</tilt>
			<gx:fovy>30</gx:fovy>
			<range>26383.24306360447</range>
			<altitudeMode>absolute</altitudeMode>
		</LookAt>
		<styleUrl>#__managed_style_3260387E113E658747D8</styleUrl>
		<Polygon>
			<outerBoundaryIs>
				<LinearRing>
					<coordinates>
						-71.99309461388398,-36.36646273094566,0 -71.99783582914934,-36.37882689442989,0 -71.99552020304853,-36.38753764714658,0 -71.99782956306883,-36.39382081854271,0 -71.97741472926107,-36.3994463954245,0 -71.95929035745252,-36.40626096798998,0 -71.94613882140452,-36.37962111246568,0 -71.9525490715956,-36.37395279262697,0 -71.96588351080004,-36.37060104140012,0 -71.99309461388398,-36.36646273094566,0 
					</coordinates>
				</LinearRing>
			</outerBoundaryIs>
		</Polygon>
	</Placemark>
</Document>
</kml>
